IRIDIUM 126             
1 42809U 17039G   24083.20581585  .00000459  00000+0  15667-3 0  9999
2 42809  86.4004 334.6626 0001974  91.4507 268.6915 14.34220853353004
IRIDIUM 124             
1 42810U 17039H   24083.51373242  .00000368  00000+0  10350-3 0  9997
2 42810  86.4434 271.2456 0002296  85.0153 275.1310 14.43279617357462
IRIDIUM 128             
1 42811U 17039J   24082.84770774  .00000677  00000+0  23475-3 0  9999
2 42811  86.4031   6.3088 0002394  87.4473 272.6996 14.34223801352971
IRIDIUM 121             
1 42812U 17039K   24083.22484721  .00000852  00000+0  29699-3 0  9996
2 42812  86.4008 334.6765 0002111  90.7259 269.4179 14.34218424352995
IRIDIUM 133             
1 42955U 17061A   24082.73988973  .00000197  00000+0  63298-4 0  9998
2 42955  86.4033   6.4513 0002088  86.6054 273.5381 14.34219372337757
IRIDIUM 100             
1 42956U 17061B   24082.87308350  .00000385  00000+0  13045-3 0  9992
2 42956  86.4031   6.3332 0002155  86.6686 273.4756 14.34220558337775
IRIDIUM 122             
1 42957U 17061C   24083.32975153  .00000131  00000+0  39605-4 0  9995
2 42957  86.4030   6.1407 0002297  90.2459 269.9000 14.34218400337845
IRIDIUM 129             
1 42958U 17061D   24082.79697219  .00000484  00000+0  16593-3 0  9991
2 42958  86.4030   6.4216 0002277  90.9329 269.2127 14.34217263337780
